[{"OBJECT_NAME":"FLOCK 4G-8","OBJECT_ID":"2025-009E","EPOCH":"2026-03-09T17:22:17.546016","MEAN_MOTION":15.27623414,"ECCENTRICITY":0.00030503,"INCLINATION":97.4045,"RA_OF_ASC_NODE":151.2834,"ARG_OF_PERICENTER":315.2538,"MEAN_ANOMALY":44.8455,"EPHEMERIS_TYPE":0,"CLASSIFICATION_TYPE":"U","NORAD_CAT_ID":62613,"ELEMENT_SET_NO":999,"REV_AT_EPOCH":6372,"BSTAR":0.0005043806,"MEAN_MOTION_DOT":0.00013559,"MEAN_MOTION_DDOT":0},{"OBJECT_NAME":"STARLINK-33972","OBJECT_ID":"2025-095D","EPOCH":"2026-03-09T08:09:54.320256","MEAN_MOTION":15.27582978,"ECCENTRICITY":1.693e-5,"INCLINATION":42.9977,"RA_OF_ASC_NODE":178.2585,"ARG_OF_PERICENTER":193.4438,"MEAN_ANOMALY":166.6409,"EPHEMERIS_TYPE":0,"CLASSIFICATION_TYPE":"U","NORAD_CAT_ID":63893,"ELEMENT_SET_NO":999,"REV_AT_EPOCH":4773,"BSTAR":0.0011528106,"MEAN_MOTION_DOT":0.000316,"MEAN_MOTION_DDOT":0}]
